CUTE-1 (CO-55)          
1 27844U 03031E   26087.74233344  .00000366  00000+0  17739-3 0  9999
2 27844  98.6773  97.3052 0010625  62.9133 297.3129 14.24281445180222
